NORAD_CAT_ID,OBJECT_NAME,OBJECT_TYPE,EPOCH,MEAN_MOTION,ECCENTRICITY,INCLINATION,RA_OF_ASC_NODE,ARG_OF_PERICENTER,MEAN_ANOMALY,BSTAR,MEAN_MOTION_DOT,MEAN_MOTION_DDOT,TLE_LINE0,TLE_LINE1,TLE_LINE2,SEMIMAJOR_AXIS,PERIOD,APOGEE,PERIGEE,DECAYED
56794.0,STARLINK-6060,PAYLOAD,2024-08-09 14:44:09,14.98336726,0.0003087,70.0024,339.4538,260.9017,99.1792,3.4335e-05,3.17e-06,0.0,0 STARLINK-6060,1 56794U 23078AD  24222.61399514  .00000317  00000-0  34335-4 0  9994,2 56794  70.0024 339.4538 0003087 260.9017  99.1792 14.98336726 66732,6950.172,96.107,574.183,569.892,0.0
56794.0,STARLINK-6060,PAYLOAD,2024-08-09 17:56:25,14.98340904,0.0003162,70.002,339.1166,261.2972,98.7829,7.5554e-05,8.09e-06,0.0,0 STARLINK-6060,1 56794U 23078AD  24222.74751203  .00000809  00000-0  75554-4 0  9999,2 56794  70.0020 339.1166 0003162 261.2972  98.7829 14.98340904 67011,6950.159,96.106,574.222,569.827,0.0
56794.0,STARLINK-6060,PAYLOAD,2024-08-10 11:33:54,14.98326758,0.0002847,70.0026,337.2634,266.3737,93.7097,-5.3796e-05,-7.35e-06,0.0,0 STARLINK-6060,1 56794U 23078AD  24223.48188349 -.00000735  00000-0 -53796-4 0  9990,2 56794  70.0026 337.2634 0002847 266.3737  93.7097 14.98326758 67125,6950.203,96.107,574.047,570.089,0.0
56794.0,STARLINK-6060,PAYLOAD,2024-08-10 14:46:10,14.98328923,0.0002619,70.0033,336.9279,259.7407,100.3456,-2.8434e-05,-4.32e-06,0.0,0 STARLINK-6060,1 56794U 23078AD  24223.61540140 -.00000432  00000-0 -28434-4 0  9991,2 56794  70.0033 336.9279 0002619 259.7407 100.3456 14.98328923 66883,6950.196,96.107,573.881,570.241,0.0
56794.0,STARLINK-6060,PAYLOAD,2024-08-10 17:58:26,14.98333305,0.0002663,70.0031,336.5912,263.6333,96.4523,1.9096e-05,1.35e-06,0.0,0 STARLINK-6060,1 56794U 23078AD  24223.74891726  .00000135  00000-0  19096-4 0  9996,2 56794  70.0031 336.5912 0002663 263.6333  96.4523 14.98333305 67164,6950.183,96.107,573.899,570.197,0.0
56794.0,STARLINK-6060,PAYLOAD,2024-08-11 04:00:00,14.98268486,0.0003309,70.0022,335.5357,263.9685,188.8642,0.0090452,0.00109361,0.0,0 STARLINK-6060,1 56794U 23078AD  24224.16667824  .00109361  00000-0  90452-2 0  9997,2 56794  70.0022 335.5357 0003309 263.9685 188.8642 14.98268486 67229,6950.383,96.111,574.548,569.948,0.0
56794.0,STARLINK-6060,PAYLOAD,2024-08-11 12:00:00,14.98371374,0.0003326,70.0024,334.6953,268.7568,181.52,-0.0054069,-0.00064091,0.0,0 STARLINK-6060,1 56794U 23078AD  24224.50001157 -.00064091  00000-0 -54069-2 0  9992,2 56794  70.0024 334.6953 0003326 268.7568 181.5200 14.98371374 67271,6950.065,96.104,574.242,569.618,0.0
56794.0,STARLINK-6060,PAYLOAD,2024-08-11 22:00:01,14.9831149,0.0003424,70.0018,333.6445,274.748,262.4772,-0.0035124,-0.00041735,0.0,0 STARLINK-6060,1 56794U 23078AD  24224.91668981 -.00041735  00000-0 -35124-2 0  9992,2 56794  70.0018 333.6445 0003424 274.7480 262.4772 14.98311490  5771,6950.25,96.108,574.495,569.735,0.0
56794.0,STARLINK-6060,PAYLOAD,2024-08-12 00:25:00,14.98328448,0.0001418,70.0008,333.3888,291.2987,68.8021,-0.00021794,-2.692e-05,0.0,0 STARLINK-6060,1 56794U 23078AD  24225.01737168 -.00002692  00000-0 -21794-3 0  9996,2 56794  70.0008 333.3888 0001418 291.2987  68.8021 14.98328448 67353,6950.198,96.107,573.048,571.077,0.0
56794.0,STARLINK-6060,PAYLOAD,2024-08-12 13:14:05,14.98316981,0.000271,70.003,332.0476,254.6879,105.398,-7.6878e-05,-1.01e-05,0.0,0 STARLINK-6060,1 56794U 23078AD  24225.55145428 -.00001010  00000-0 -76878-4 0  9994,2 56794  70.0030 332.0476 0002710 254.6879 105.3980 14.98316981 67435,6950.233,96.108,573.982,570.215,0.0
56794.0,STARLINK-6060,PAYLOAD,2024-08-13 00:27:00,14.98342554,0.0002969,70.0013,330.8657,274.0839,85.9981,-1.2802e-05,-2.46e-06,0.0,0 STARLINK-6060,1 56794U 23078AD  24226.01875477 -.00000246  00000-0 -12802-4 0  9997,2 56794  70.0013 330.8657 0002969 274.0839  85.9981 14.98342554 67508,6950.154,96.106,574.083,569.956,0.0
56794.0,STARLINK-6060,PAYLOAD,2024-08-13 13:16:06,14.98321322,0.0002904,70.0002,329.5199,258.0424,102.041,-0.0001285,-1.626e-05,0.0,0 STARLINK-6060,1 56794U 23078AD  24226.55285449 -.00001626  00000-0 -12850-3 0  9995,2 56794  70.0002 329.5199 0002904 258.0424 102.0410 14.98321322 67589,6950.22,96.108,574.103,570.066,0.0
56794.0,STARLINK-6060,PAYLOAD,2024-08-13 16:28:22,14.98318315,0.0002607,69.9989,329.1784,248.3121,111.7761,-9.8415e-05,-1.267e-05,0.0,0 STARLINK-6060,1 56794U 23078AD  24226.68637621 -.00001267  00000-0 -98415-4 0  9995,2 56794  69.9989 329.1784 0002607 248.3121 111.7761 14.98318315 67340,6950.229,96.108,573.906,570.282,0.0
56794.0,STARLINK-6060,PAYLOAD,2024-08-14 06:54:06,14.97984121,0.0004862,69.9987,327.6636,105.5667,254.6029,-0.0035492,-0.00041822,0.0,0 STARLINK-6060,1 56794U 23078AD  24227.28757243 -.00041822  00000-0 -35492-2 0  9990,2 56794  69.9987 327.6636 0004862 105.5667 254.6029 14.97984121 67696,6951.263,96.129,576.507,569.748,0.0
56794.0,STARLINK-6060,PAYLOAD,2024-08-14 10:05:50,14.98322765,0.000317,70.0003,327.3311,269.1763,90.9033,0.00023329,2.691e-05,0.0,0 STARLINK-6060,1 56794U 23078AD  24227.42072582  .00002691  00000-0  23329-3 0  9998,2 56794  70.0003 327.3311 0003170 269.1763  90.9033 14.98322765 67710,6950.215,96.107,574.283,569.877,0.0
56794.0,STARLINK-6060,PAYLOAD,2024-08-14 16:30:22,14.98339279,0.0003037,70.0,326.6573,266.2146,93.8666,0.0001072,1.187e-05,0.0,0 STARLINK-6060,1 56794U 23078AD  24227.68775887  .00001187  00000-0  10720-3 0  9994,2 56794  70.0000 326.6573 0003037 266.2146  93.8666 14.98339279 67750,6950.164,96.106,574.14,569.918,0.0
56794.0,STARLINK-6060,PAYLOAD,2024-08-15 00:31:02,14.98322988,0.0003009,70.0011,325.8143,267.0148,93.0666,0.00023365,2.695e-05,0.0,0 STARLINK-6060,1 56794U 23078AD  24228.02156248  .00002695  00000-0  23365-3 0  9991,2 56794  70.0011 325.8143 0003009 267.0148  93.0666 14.98322988 67803,6950.215,96.107,574.171,569.988,0.0
56794.0,STARLINK-6060,PAYLOAD,2024-08-15 13:20:07,14.98331243,0.0002903,70.0004,324.4694,270.3801,89.7025,0.00013392,1.505e-05,0.0,0 STARLINK-6060,1 56794U 23078AD  24228.55564193  .00001505  00000-0  13392-3 0  9999,2 56794  70.0004 324.4694 0002903 270.3801  89.7025 14.98331243 67621,6950.189,96.107,574.072,570.036,0.0
56794.0,STARLINK-6060,PAYLOAD,2024-08-16 10:09:52,14.98334204,0.000292,70.0011,322.2818,272.0834,87.9991,-3.7462e-05,-5.4e-06,0.0,0 STARLINK-6060,1 56794U 23078AD  24229.42352367 -.00000540  00000-0 -37462-4 0  9999,2 56794  70.0011 322.2818 0002920 272.0834  87.9991 14.98334204 68013,6950.18,96.107,574.074,570.015,0.0
56794.0,STARLINK-6060,PAYLOAD,2024-08-17 05:23:29,14.98330581,0.0003113,70.0006,320.2622,273.6193,86.461,3.9094e-06,-4.6e-07,0.0,0 STARLINK-6060,1 56794U 23078AD  24230.22464220 -.00000046  00000-0  39094-5 0  9995,2 56794  70.0006 320.2622 0003113 273.6193  86.4610 14.98330581 67877,6950.191,96.107,574.22,569.892,0.0
56794.0,STARLINK-6060,PAYLOAD,2024-08-18 11:50:01,14.98334933,0.0003281,69.9999,317.0625,272.8012,87.2771,5.3512e-05,5.46e-06,0.0,0 STARLINK-6060,1 56794U 23078AD  24231.49307595  .00000546  00000-0  53512-4 0  9990,2 56794  69.9999 317.0625 0003281 272.8012  87.2771 14.98334933 68322,6950.178,96.107,574.323,569.762,0.0
56794.0,STARLINK-6060,PAYLOAD,2024-08-18 15:02:17,14.98341869,0.0002932,70.0007,316.7271,264.3568,95.7256,0.00011914,1.329e-05,0.0,0 STARLINK-6060,1 56794U 23078AD  24231.62658853  .00001329  00000-0  11914-3 0  9990,2 56794  70.0007 316.7271 0002932 264.3568  95.7256 14.98341869 68342,6950.156,96.106,574.059,569.983,0.0
56794.0,STARLINK-6060,PAYLOAD,2024-08-19 11:52:03,14.98318765,0.0003202,70.0007,314.5403,270.3701,89.7091,-2.1441e-05,-3.49e-06,0.0,0 STARLINK-6060,1 56794U 23078AD  24232.49448792 -.00000349  00000-0 -21441-4 0  9995,2 56794  70.0007 314.5403 0003202 270.3701  89.7091 14.98318765 68475,6950.228,96.108,574.318,569.867,0.0
56794.0,STARLINK-6060,PAYLOAD,2024-08-20 05:29:52,14.98139972,0.0003938,70.0006,312.6899,278.6809,81.3904,-0.0019425,-0.00023083,0.0,0 STARLINK-6060,1 56794U 23078AD  24233.22907868 -.00023083  00000-0 -19425-2 0  9998,2 56794  70.0006 312.6899 0003938 278.6809  81.3904 14.98139972 68582,6950.781,96.119,575.383,569.908,0.0
56794.0,STARLINK-6060,PAYLOAD,2024-08-20 11:54:56,14.97708075,0.0001445,70.0,312.0171,196.1321,163.9791,-0.0069288,-0.00080512,0.0,0 STARLINK-6060,1 56794U 23078AD  24233.49648507 -.00080512  00000-0 -69288-2 0  9991,2 56794  70.0000 312.0171 0001445 196.1321 163.9791 14.97708075 68628,6952.117,96.147,574.986,572.977,0.0
56794.0,STARLINK-6060,PAYLOAD,2024-08-20 13:30:19,14.98312747,0.0002751,70.0011,311.8484,275.9034,84.1812,8.2472e-06,5e-08,0.0,0 STARLINK-6060,1 56794U 23078AD  24233.56272231  .00000005  00000-0  82472-5 0  9996,2 56794  70.0011 311.8484 0002751 275.9034  84.1812 14.98312747 68370,6950.246,96.108,574.023,570.199,0.0
56794.0,STARLINK-6060,PAYLOAD,2024-08-20 15:04:09,15.00063564,0.0008748,69.9993,311.6702,313.6759,46.3675,0.018878,0.00243997,0.0,0 STARLINK-6060,1 56794U 23078AD  24233.62788820  .00243997  00000-0  18878-1 0  9993,2 56794  69.9993 311.6702 0008748 313.6759  46.3675 15.00063564 68644,6944.837,95.996,572.777,560.627,0.0
56794.0,STARLINK-6060,PAYLOAD,2024-08-21 04:00:00,14.98261582,0.0003344,70.0016,310.3225,268.0499,109.2386,0.0074367,0.00089627,0.0,0 STARLINK-6060,1 56794U 23078AD  24234.16667824  .00089627  00000-0  74367-2 0  9997,2 56794  70.0016 310.3225 0003344 268.0499 109.2386 14.98261582 68723,6950.404,96.111,574.594,569.945,0.0
56794.0,STARLINK-6060,PAYLOAD,2024-08-21 10:19:05,14.99014793,0.0007836,69.9992,309.6543,301.7447,58.2949,0.0078565,0.00096696,0.0,0 STARLINK-6060,1 56794U 23078AD  24234.42992558  .00096696  00000-0  78565-2 0  9999,2 56794  69.9992 309.6543 0007836 301.7447  58.2949 14.99014793 68768,6948.076,96.063,575.386,564.497,0.0
56794.0,STARLINK-6060,PAYLOAD,2024-08-21 15:08:22,14.98319364,0.0003532,69.9994,309.1519,280.8045,79.2717,8.1661e-05,8.81e-06,0.0,0 STARLINK-6060,1 56794U 23078AD  24234.63081490  .00000881  00000-0  81661-4 0  9990,2 56794  69.9994 309.1519 0003532 280.8045  79.2717 14.98319364 68530,6950.226,96.108,574.546,569.636,0.0
